ORBCOMM FM115 [+]       
1 41186U 15081H   23286.52252725  .00002517  00000+0  55490-3 0  9996
2 41186  46.9984  67.2640 0000738 198.7283 161.3576 14.59991160418178
ORBCOMM FM108 [+]       
1 41187U 15081J   23286.25596450  .00001491  00000+0  37339-3 0  9995
2 41187  47.0035 116.2562 0002082  21.3453 338.7518 14.55988152417415
ORBCOMM FM117 [+]       
1 41188U 15081K   23286.49598576  .00001567  00000+0  39070-3 0  9991
2 41188  46.9997 114.0888 0002625  34.0687 326.0365 14.55960321417497
ORBCOMM FM116 [+]       
1 41189U 15081L   23286.82897129  .00002848  00000+0  67863-3 0  9999
2 41189  47.0010 202.3305 0001351 130.2461 229.8542 14.55988543416420
